{
  "type": "FeatureCollection",
  "features": [
    {
      "type": "Feature",
      "properties": {
        "norad_id": 49537,
        "name": "COSMOS 1408 DEB",
        "group": "cosmos-1408-debris",
        "lat": 49.289619224454725,
        "lon": -83.49806532382017,
        "alt_km": 139.70942450604343,
        "timestamp": "2025-12-02T23:34:15.786854+00:00",
        "meta_object_name": "COSMOS 1408 DEB",
        "meta_object_id": "1982-092AA",
        "meta_epoch": "2025-12-01T10:29:21.651360",
        "meta_mean_motion": 16.33498888,
        "meta_eccentricity": 0.00127731,
        "meta_inclination": 82.5092,
        "meta_ra_of_asc_node": 107.1368,
        "meta_arg_of_pericenter": 299.8571,
        "meta_mean_anomaly": 60.1455,
        "meta_ephemeris_type": 0,
        "meta_classification_type": "U",
        "meta_norad_cat_id": 49537,
        "meta_element_set_no": 999,
        "meta_rev_at_epoch": 22403,
        "meta_bstar": 0.00094222941,
        "meta_mean_motion_dot": 0.05878558,
        "meta_mean_motion_ddot": -1.252052e-06,
        "tle_line1": "1 49537U 82092AA  25335.43705615  .05878558 -12521-5  94223-3 0  9994",
        "tle_line2": "2 49537  82.5092 107.1368 0012773 299.8571  60.1455 16.33498888224033"
      },
      "geometry": {
        "type": "Point",
        "coordinates": [
          -83.49806532382017,
          49.289619224454725
        ]
      }
    },
    {
      "type": "Feature",
      "properties": {
        "norad_id": 50032,
        "name": "COSMOS 1408 DEB",
        "group": "cosmos-1408-debris",
        "lat": -48.29166347598495,
        "lon": -103.06656853608638,
        "alt_km": 427.24849073423684,
        "timestamp": "2025-12-02T23:34:15.786873+00:00",
        "meta_object_name": "COSMOS 1408 DEB",
        "meta_object_id": "1982-092RU",
        "meta_epoch": "2025-12-02T07:02:40.319808",
        "meta_mean_motion": 15.45526485,
        "meta_eccentricity": 0.0014644,
        "meta_inclination": 82.5651,
        "meta_ra_of_asc_node": 69.2131,
        "meta_arg_of_pericenter": 249.5903,
        "meta_mean_anomaly": 110.3774,
        "meta_ephemeris_type": 0,
        "meta_classification_type": "U",
        "meta_norad_cat_id": 50032,
        "meta_element_set_no": 999,
        "meta_rev_at_epoch": 22442,
        "meta_bstar": 0.00014391,
        "meta_mean_motion_dot": 6.972e-05,
        "meta_mean_motion_ddot": 0,
        "tle_line1": "1 50032U 82092RU  25336.29352222  .00006972  00000+0  14391-3 0  9991",
        "tle_line2": "2 50032  82.5651  69.2131 0014644 249.5903 110.3774 15.45526485224424"
      },
      "geometry": {
        "type": "Point",
        "coordinates": [
          -103.06656853608638,
          -48.29166347598495
        ]
      }
    },
    {
      "type": "Feature",
      "properties": {
        "norad_id": 50058,
        "name": "COSMOS 1408 DEB",
        "group": "cosmos-1408-debris",
        "lat": 21.996275139758218,
        "lon": -103.45743828901267,
        "alt_km": 368.2659087949314,
        "timestamp": "2025-12-02T23:34:15.786886+00:00",
        "meta_object_name": "COSMOS 1408 DEB",
        "meta_object_id": "1982-092SW",
        "meta_epoch": "2025-12-02T07:32:09.716640",
        "meta_mean_motion": 15.63161945,
        "meta_eccentricity": 0.0016231,
        "meta_inclination": 82.6139,
        "meta_ra_of_asc_node": 80.2446,
        "meta_arg_of_pericenter": 135.9979,
        "meta_mean_anomaly": 224.2575,
        "meta_ephemeris_type": 0,
        "meta_classification_type": "U",
        "meta_norad_cat_id": 50058,
        "meta_element_set_no": 999,
        "meta_rev_at_epoch": 22641,
        "meta_bstar": 0.00041635,
        "meta_mean_motion_dot": 0.00038367,
        "meta_mean_motion_ddot": 0,
        "tle_line1": "1 50058U 82092SW  25336.31400135  .00038367  00000+0  41635-3 0  9993",
        "tle_line2": "2 50058  82.6139  80.2446 0016231 135.9979 224.2575 15.63161945226412"
      },
      "geometry": {
        "type": "Point",
        "coordinates": [
          -103.45743828901267,
          21.996275139758218
        ]
      }
    },
    {
      "type": "Feature",
      "properties": {
        "norad_id": 50404,
        "name": "COSMOS 1408 DEB",
        "group": "cosmos-1408-debris",
        "lat": -71.76001425306283,
        "lon": 69.56295133746615,
        "alt_km": 423.74183344866833,
        "timestamp": "2025-12-02T23:34:15.786898+00:00",
        "meta_object_name": "COSMOS 1408 DEB",
        "meta_object_id": "1982-092ADS",
        "meta_epoch": "2025-12-02T03:23:04.900416",
        "meta_mean_motion": 15.11568017,
        "meta_eccentricity": 0.01770451,
        "meta_inclination": 82.207,
        "meta_ra_of_asc_node": 225.8658,
        "meta_arg_of_pericenter": 235.6536,
        "meta_mean_anomaly": 122.7837,
        "meta_ephemeris_type": 0,
        "meta_classification_type": "U",
        "meta_norad_cat_id": 50404,
        "meta_element_set_no": 999,
        "meta_rev_at_epoch": 21033,
        "meta_bstar": 0.0031085451,
        "meta_mean_motion_dot": 0.00077873,
        "meta_mean_motion_ddot": 0,
        "tle_line1": "1 50404U 82092ADS 25336.14102894  .00077873  00000+0  31085-2 0  9992",
        "tle_line2": "2 50404  82.2070 225.8658 0177045 235.6536 122.7837 15.11568017210338"
      },
      "geometry": {
        "type": "Point",
        "coordinates": [
          69.56295133746615,
          -71.76001425306283
        ]
      }
    },
    {
      "type": "Feature",
      "properties": {
        "norad_id": 50621,
        "name": "COSMOS 1408 DEB",
        "group": "cosmos-1408-debris",
        "lat": 71.27073123397653,
        "lon": 106.96935236325507,
        "alt_km": 401.1402055382159,
        "timestamp": "2025-12-02T23:34:15.786909+00:00",
        "meta_object_name": "COSMOS 1408 DEB",
        "meta_object_id": "1982-092ALR",
        "meta_epoch": "2025-12-02T07:49:19.521696",
        "meta_mean_motion": 15.55826479,
        "meta_eccentricity": 0.0028896,
        "meta_inclination": 82.5701,
        "meta_ra_of_asc_node": 85.0139,
        "meta_arg_of_pericenter": 190.6578,
        "meta_mean_anomaly": 169.4068,
        "meta_ephemeris_type": 0,
        "meta_classification_type": "U",
        "meta_norad_cat_id": 50621,
        "meta_element_set_no": 999,
        "meta_rev_at_epoch": 22088,
        "meta_bstar": 0.00047538,
        "meta_mean_motion_dot": 0.00033585,
        "meta_mean_motion_ddot": 0,
        "tle_line1": "1 50621U 82092ALR 25336.32592039  .00033585  00000+0  47538-3 0  9990",
        "tle_line2": "2 50621  82.5701  85.0139 0028896 190.6578 169.4068 15.55826479220880"
      },
      "geometry": {
        "type": "Point",
        "coordinates": [
          106.96935236325507,
          71.27073123397653
        ]
      }
    }
  ]
}